OBJECT_NAME,OBJECT_ID,EPOCH,MEAN_MOTION,ECCENTRICITY,INCLINATION,RA_OF_ASC_NODE,ARG_OF_PERICENTER,MEAN_ANOMALY,EPHEMERIS_TYPE,CLASSIFICATION_TYPE,NORAD_CAT_ID,ELEMENT_SET_NO,REV_AT_EPOCH,BSTAR,MEAN_MOTION_DOT,MEAN_MOTION_DDOT
CATSAT,2024-125J,2026-06-09T11:56:38.639616,15.57746504,.0021978,97.2097,12.9028,206.7680,153.2443,0,U,60246,999,10619,.72327E-3,.54428E-3,0
GAOFEN-11 05,2024-130A,2026-06-09T11:56:55.035744,15.23572179,.0004776,97.3998,238.9144,101.4793,258.6980,0,U,60249,999,8429,.21017E-3,.4957E-4,0
STARLINK-32138,2024-131A,2026-06-08T19:26:52.181088,15.31717741,.00013198,53.1637,348.9029,93.2809,266.8343,0,U,60255,999,10597,.48709385E-4,.1147E-4,0
STARLINK-32212,2024-131B,2026-06-09T06:04:28.400736,15.30190783,.0001252,53.1612,347.4071,81.1649,278.9494,0,U,60256,999,10573,.93182E-4,.2401E-4,0
STARLINK-32166,2024-131C,2026-06-08T19:15:13.022784,15.30189521,.00013339,53.1614,349.5606,97.4377,262.6776,0,U,60257,999,10566,.6242563E-4,.1489E-4,0
STARLINK-32200,2024-131D,2026-06-09T06:01:25.734720,15.30182847,.0000949,53.1611,347.3841,74.9773,285.1332,0,U,60258,999,10573,.92978E-4,.2394E-4,0
STARLINK-32207,2024-131E,2026-06-09T05:58:23.504160,15.30176802,.0001344,53.1618,347.3812,84.6672,275.4482,0,U,60259,999,10573,.80466E-4,.2023E-4,0
STARLINK-32125,2024-131F,2026-06-08T19:21:07.859808,15.30186989,.00010475,53.1621,348.8779,83.0954,277.0166,0,U,60260,999,10567,.10912586E-3,.2873E-4,0
STARLINK-32160,2024-131G,2026-06-09T06:06:00.079776,15.30202318,.0001323,53.1611,347.3967,90.0406,270.0747,0,U,60261,999,10578,.52367E-3,.15183E-3,0
STARLINK-32163,2024-131H,2026-06-09T05:50:58.660800,15.31708425,.00018,53.1655,346.6239,107.5966,252.5232,0,U,60262,999,10574,.14033E-3,.3993E-4,0
STARLINK-32148,2024-131J,2026-06-08T19:40:20.361504,15.31703787,.00012824,53.1621,348.9546,87.7236,272.3912,0,U,60263,999,10572,-.94603549E-4,-.33E-4,0
STARLINK-32121,2024-131K,2026-06-09T04:02:44.848896,15.30420923,.00012245,53.1617,347.5810,147.5341,212.5736,0,U,60264,999,10577,.99413877E-3,.29403E-3,0
STARLINK-32120,2024-131L,2026-06-08T19:20:41.652960,15.29358152,.00014352,53.1615,349.5846,85.6355,274.4810,0,U,60265,999,10571,.65923432E-4,.1547E-4,0
STARLINK-32205,2024-131M,2026-06-09T05:30:57.882240,15.31737167,.000115,53.1618,347.2627,97.4068,262.7064,0,U,60266,999,10573,-.2405E-3,-.7829E-4,0
STARLINK-32158,2024-131N,2026-06-09T05:08:14.694144,15.30195147,.0001085,53.1626,347.1489,100.2781,259.8342,0,U,60267,999,10563,.52939E-4,.1209E-4,0
STARLINK-32167,2024-131P,2026-06-08T19:22:39.325440,15.30197991,.00013235,53.1617,348.8910,95.3720,264.7432,0,U,60268,999,10566,.1839597E-3,.5093E-4,0
STARLINK-32144,2024-131Q,2026-06-09T06:04:26.378976,15.31700758,.0001406,53.1626,346.6836,81.2447,278.8714,0,U,60269,999,10579,.4891E-4,.1153E-4,0
STARLINK-32211,2024-131R,2026-06-09T06:09:01.778112,15.30191523,.0001122,53.1620,347.4274,75.7929,284.3197,0,U,60270,999,10573,.76989E-4,.1921E-4,0
STARLINK-32164,2024-131S,2026-06-08T19:16:44.304384,15.30191143,.00012919,53.1616,349.5659,79.8774,280.2372,0,U,60271,999,10556,.3366065E-4,.638E-5,0
STARLINK-32128,2024-131T,2026-06-08T19:39:22.303296,15.30192376,.00014799,53.1631,348.9541,110.4135,249.7025,0,U,60272,999,10567,.19807538E-4,.227E-5,0
STARLINK-32206,2024-131U,2026-06-09T05:59:52.898784,15.30210054,.0001052,53.1618,347.3810,90.5182,269.5939,0,U,60273,999,10573,.14366E-3,.3899E-4,0
STARLINK-32155,2024-131V,2026-06-09T05:24:14.886720,15.31690389,.0001068,53.1610,347.2190,88.6803,271.4321,0,U,60274,999,10563,-.47065E-4,-.1825E-4,0
STARLINK-32152,2024-131W,2026-06-08T19:34:48.122400,15.30202962,.00013799,53.1634,348.9314,93.2626,266.8533,0,U,60275,999,10557,.47189019E-4,.1039E-4,0
STARLINK-32154,2024-131X,2026-06-08T19:25:40.727424,15.30207465,.0001304,53.1640,348.8907,92.4163,267.6987,0,U,60276,999,10567,.53984982E-4,.124E-4,0
STARLINK-32135,2024-131Y,2026-06-09T05:14:19.608864,15.30205649,.0001112,53.1599,347.1736,94.3304,265.7824,0,U,60277,999,10573,.31519E-3,.8989E-4,0
STARLINK-32156,2024-132A,2026-06-08T18:02:18.208896,15.30203979,.00011519,53.1629,349.3729,111.6133,248.4991,0,U,60278,999,10672,.4803574E-5,-.217E-5,0
STARLINK-32010,2024-132B,2026-06-09T05:03:38.094048,15.31694025,.0001244,53.1627,347.2661,113.0339,247.0793,0,U,60279,999,10557,-.18784E-4,-.948E-5,0
STARLINK-32118,2024-132C,2026-06-08T19:27:13.227264,15.30212724,.00012277,53.1593,349.0229,81.1464,278.9676,0,U,60280,999,10551,.59238425E-4,.1396E-4,0
STARLINK-32038,2024-132D,2026-06-08T19:30:16.765920,15.30193220,.00013805,53.1631,349.0421,105.6737,254.4417,0,U,60281,999,10551,-.40110776E-4,-.1547E-4,0
STARLINK-32113,2024-132E,2026-06-08T19:31:47.323488,15.30191032,.00007211,53.1620,349.0450,74.6536,285.4544,0,U,60282,999,10551,.14309952E-3,.388E-4,0
STARLINK-32037,2024-132F,2026-06-08T19:53:18.701088,15.31686418,.00012381,53.1624,349.1401,101.0572,259.0568,0,U,60283,999,10551,.1619311E-5,-.315E-5,0
STARLINK-32123,2024-132G,2026-06-08T18:31:53.948352,15.30180396,.00013238,53.1608,336.7282,76.5857,283.5291,0,U,60284,999,10568,.12118544E-3,.3229E-4,0
STARLINK-32122,2024-132H,2026-06-09T05:15:52.523424,15.30186663,.0001248,53.1617,347.3114,95.1786,264.9358,0,U,60285,999,10557,.77561E-4,.1938E-4,0
STARLINK-31656,2024-132J,2026-06-08T19:18:06.806016,15.30195233,.00012402,53.1621,348.9952,110.5931,249.5203,0,U,60286,999,10551,.40537516E-4,.841E-5,0
STARLINK-32114,2024-132K,2026-06-09T05:23:47.992992,15.31688456,.0001017,53.1622,347.3455,98.7142,261.3975,0,U,60287,999,10557,-.13824E-4,-.794E-5,0
STARLINK-31997,2024-132L,2026-06-09T06:02:48.881760,15.30190998,.0001196,53.1621,346.8005,77.6244,282.4891,0,U,60288,999,10558,.55012E-4,.127E-4,0
STARLINK-32000,2024-132M,2026-06-08T20:46:56.848800,15.31699802,.00011738,53.1612,348.6640,91.1216,268.9920,0,U,60289,999,10552,.84040319E-4,.2244E-4,0
STARLINK-32141,2024-132N,2026-06-09T05:06:45.551808,15.30188620,.0001421,53.1631,347.2720,94.5446,265.5717,0,U,60290,999,10557,.67831E-4,.165E-4,0
STARLINK-32142,2024-132P,2026-06-08T19:12:02.653344,15.30189165,.00012076,53.1618,348.9602,76.7266,283.3869,0,U,60291,999,10551,.74490254E-4,.1847E-4,0
STARLINK-32149,2024-132Q,2026-06-09T05:10:50.016288,15.31698518,.0001462,53.1621,347.2870,71.8453,288.2707,0,U,60292,999,10557,.29358E-4,.546E-5,0
STARLINK-32159,2024-132R,2026-06-09T06:07:22.332576,15.30192698,.0001449,53.1620,346.8208,80.6823,279.4342,0,U,60293,999,10558,.53326E-4,.122E-4,0
STARLINK-32150,2024-132S,2026-06-09T05:17:33.421344,15.31696265,.0001287,53.1623,347.3200,98.8095,261.3052,0,U,60294,999,10557,.76206E-4,.2E-4,0
STARLINK-32126,2024-132T,2026-06-08T19:33:36.979776,15.31711711,.00013046,53.1630,349.0538,92.7199,267.3952,0,U,60295,999,10551,.47932693E-4,.1123E-4,0
STARLINK-32143,2024-132U,2026-06-08T19:20:11.499360,15.31696444,.00011982,53.1617,348.9971,74.5197,285.5936,0,U,60296,999,10551,.43245152E-4,.977E-5,0
STARLINK-32034,2024-132V,2026-06-09T05:57:15.451200,15.31699072,.0001556,53.1619,346.7810,79.7877,280.3300,0,U,60297,999,10558,.43083E-4,.972E-5,0
STARLINK-32124,2024-132W,2026-06-08T19:13:27.319296,15.31760470,.0001458,53.1618,348.9720,106.2408,253.8754,0,U,60298,999,10551,-.26961676E-3,-.8738E-4,0
STARLINK-32151,2024-132X,2026-06-09T04:11:08.463264,15.30186227,.00014056,53.1610,319.0487,82.8741,277.2420,0,U,60299,999,10596,.98113694E-4,.2546E-4,0
STARLINK-32134,2024-132Y,2026-06-09T05:09:47.706336,15.30189009,.0001149,53.1620,347.2828,97.4458,262.6673,0,U,60300,999,10557,.84258E-4,.2136E-4,0
STARLINK-11147 [DTC],2024-133A,2026-06-09T00:10:39.128448,15.69706391,.00010196,53.1586,56.2769,46.6173,313.4930,0,U,60301,999,10807,.13200061E-4,.1011E-4,0
STARLINK-11128 [DTC],2024-133B,2026-06-09T00:03:35.425440,15.69718131,.00008266,53.1568,56.2441,89.8558,270.2555,0,U,60302,999,10807,.52955316E-4,.5834E-4,0
STARLINK-11227 [DTC],2024-133C,2026-06-08T23:56:31.581600,15.69709867,.00009773,53.1595,56.2120,70.5906,289.5218,0,U,60303,999,10815,.4175111E-5,-.83E-6,0
STARLINK-11224 [DTC],2024-133D,2026-06-09T10:31:14.953728,15.69700810,.0000923,53.1587,53.9837,73.8240,286.2879,0,U,60304,999,10822,.23609E-4,.2272E-4,0
STARLINK-11115 [DTC],2024-133E,2026-06-09T10:24:11.058048,15.69703109,.0001386,53.1589,53.9539,51.6840,308.4302,0,U,60305,999,10814,.23873E-4,.2303E-4,0
STARLINK-11109 [DTC],2024-133F,2026-06-09T10:17:07.607328,15.69699652,.0001197,53.1596,53.9169,88.2032,271.9123,0,U,60306,999,10814,.15422E-4,.1279E-4,0
STARLINK-11223 [DTC],2024-133G,2026-06-09T05:27:56.316096,15.69724626,.0001102,53.1584,54.7903,94.2684,265.8460,0,U,60307,999,10811,.19618E-4,.179E-4,0
STARLINK-11192 [DTC],2024-133H,2026-06-09T10:10:03.734112,15.69703954,.0001252,53.1603,53.8838,93.2196,266.8965,0,U,60308,999,10814,.47504E-5,-.13E-6,0
STARLINK-11213 [DTC],2024-133J,2026-06-09T09:55:56.021376,15.69709871,.0000993,53.1592,53.8154,71.6367,288.4758,0,U,60309,999,10814,-.2958E-5,-.947E-5,0
STARLINK-11200 [DTC],2024-133K,2026-06-09T09:48:51.914880,15.69715474,.0001072,53.1599,53.7829,73.4456,286.6680,0,U,60310,999,10814,.66012E-5,.211E-5,0
STARLINK-11206 [DTC],2024-133M,2026-06-09T06:31:30.697248,15.69707754,.0001045,53.1594,55.0806,124.8594,235.2522,0,U,60312,999,10811,.1575E-4,.132E-4,0
STARLINK-11205 [DTC],2024-133N,2026-06-09T00:17:43.143360,15.69716180,.00009931,53.1580,56.3019,71.5890,288.5236,0,U,60313,999,10807,.48914258E-4,.5343E-4,0
STARLINK-32191,2024-133P,2026-06-09T11:09:38.153088,15.30194505,.0001286,53.1595,230.6227,87.2968,272.8179,0,U,60314,999,10569,.99043E-4,.2575E-4,0
STARLINK-32194,2024-133Q,2026-06-09T11:30:54.315648,15.30201979,.0001446,53.1599,230.7193,82.0606,278.0559,0,U,60315,999,10569,.17751E-3,.4902E-4,0
STARLINK-32192,2024-133R,2026-06-09T10:37:43.929120,15.30185061,.0001504,53.1598,230.4897,92.5556,267.5617,0,U,60316,999,10578,.1382E-3,.3734E-4,0
STARLINK-32189,2024-133S,2026-06-09T11:27:52.618176,15.30196333,.0001258,53.1601,230.7038,87.0356,273.0788,0,U,60317,999,10578,.85734E-4,.2181E-4,0
